NETSAT-4                
1 46504U 20068U   26061.50930575  .00021923  00000+0  55026-3 0  9991
2 46504  97.8634  61.4742 0005628   6.7702 353.3617 15.40018610299335
NETSAT-3                
1 46505U 20068V   26061.55851315  .00021355  00000+0  56010-3 0  9994
2 46505  97.8668  59.8974 0006188  22.9256 337.2263 15.38672970299269
NETSAT-1                
1 46506U 20068W   26061.49976311  .00018390  00000+0  60157-3 0  9994
2 46506  97.8736  55.3453 0006835  40.1536 320.0208 15.31742565298956
NETSAT-2                
1 46507U 20068X   26061.59793381  .00028040  00000+0  67702-3 0  9996
2 46507  97.8647  61.1594 0005596  41.0713 319.0953 15.41146048299297
TIANQI-6                
1 46810U 20076D   26061.46234776  .00005931  00000+0  39623-3 0  9991
2 46810  35.0006 343.0851 0011563 306.1453  53.8186 15.06324679292475
KSM1-C                  
1 46906U 20081B   26061.88887911  .00017682  00000+0  69988-3 0  9997
2 46906  36.8952 354.2609 0002255 348.6303  11.4394 15.24737573292920
KSM1-D                  
1 46907U 20081C   26061.88999891  .00017557  00000+0  73187-3 0  9996
2 46907  36.8980   1.3525 0002327  48.8717 311.2232 15.23001239292875
KSM1-A                  
1 46912U 20081H   26061.90711837  .00017680  00000+0  71363-3 0  9998
2 46912  36.8972 355.7995 0002225 229.0734 130.9822 15.24082774292941
R2                      
1 46913U 20081J   26061.23995327  .00012645  00000+0  51870-3 0  9990
2 46913  36.8994 359.3853 0004218  92.4051 267.7181 15.23634417295651
KSM1-B                  
1 46914U 20081K   26061.87967950  .00012654  00000+0  53180-3 0  9998
2 46914  36.9031   1.7811 0003430  96.8829 263.2310 15.22818112295967
GONETS-M 20             
1 47227U 20091A   26061.83086381  .00000103  00000+0  67005-3 0  9990
2 47227  82.5085   8.5418 0022055  53.3428 306.9674 12.42889814237865
GONETS-M 21             
1 47228U 20091B   26061.80403367  .00000142  00000+0  95426-3 0  9996
2 47228  82.5011   7.3309 0015890  66.8498 293.4254 12.42881394237854
GONETS-M 22             
1 47229U 20091C   26061.85815946  .00000048  00000+0  27632-3 0  9991
2 47229  82.5068   8.1463 0022886  48.7650 311.5398 12.42887411237812
CUBEL                   
1 47448U 21006AM  26061.67192074  .00010921  00000+0  28400-3 0  9996
2 47448  97.2490 113.3510 0006651 183.7104 176.4094 15.39072503283364
ASTROCAST-0103          
1 47487U 21006CC  26061.76396251  .00078269  00000+0  60223-3 0  9990
2 47487  97.2648 130.8554 0005809 156.5567 203.5962 15.71756876284432
ARKTIKA-M 1             
1 47719U 21016A   26061.82287547 -.00000108  00000+0  00000+0 0  9994
2 47719  63.2036  72.8571 7242815 269.4536  15.2019  2.00620868 36654
STARLINK-2342           
1 47883U 21021Z   26061.38388366  .00006250  00000+0  22300-3 0  9998
2 47883  53.1594 302.0629 0001029  75.6959 284.4156 15.30195656275302
