[{"OBJECT_NAME":"NETSAT-4","OBJECT_ID":"2020-068U","EPOCH":"2026-03-02T12:13:24.016800","MEAN_MOTION":15.4001861,"ECCENTRICITY":0.00056289,"INCLINATION":97.8634,"RA_OF_ASC_NODE":61.4742,"ARG_OF_PERICENTER":6.7702,"MEAN_ANOMALY":353.3617,"EPHEMERIS_TYPE":0,"CLASSIFICATION_TYPE":"U","NORAD_CAT_ID":46504,"ELEMENT_SET_NO":999,"REV_AT_EPOCH":29933,"BSTAR":0.00055025841,"MEAN_MOTION_DOT":0.00021923,"MEAN_MOTION_DDOT":0},{"OBJECT_NAME":"NETSAT-3","OBJECT_ID":"2020-068V","EPOCH":"2026-03-02T13:24:15.536160","MEAN_MOTION":15.3867297,"ECCENTRICITY":0.0006188,"INCLINATION":97.8668,"RA_OF_ASC_NODE":59.8974,"ARG_OF_PERICENTER":22.9256,"MEAN_ANOMALY":337.2263,"EPHEMERIS_TYPE":0,"CLASSIFICATION_TYPE":"U","NORAD_CAT_ID":46505,"ELEMENT_SET_NO":999,"REV_AT_EPOCH":29926,"BSTAR":0.0005601,"MEAN_MOTION_DOT":0.00021355,"MEAN_MOTION_DDOT":0},{"OBJECT_NAME":"NETSAT-1","OBJECT_ID":"2020-068W","EPOCH":"2026-03-02T11:59:39.532704","MEAN_MOTION":15.31742565,"ECCENTRICITY":0.00068356,"INCLINATION":97.8736,"RA_OF_ASC_NODE":55.3453,"ARG_OF_PERICENTER":40.1536,"MEAN_ANOMALY":320.0208,"EPHEMERIS_TYPE":0,"CLASSIFICATION_TYPE":"U","NORAD_CAT_ID":46506,"ELEMENT_SET_NO":999,"REV_AT_EPOCH":29895,"BSTAR":0.00060156702,"MEAN_MOTION_DOT":0.0001839,"MEAN_MOTION_DDOT":0},{"OBJECT_NAME":"NETSAT-2","OBJECT_ID":"2020-068X","EPOCH":"2026-03-02T14:21:01.481184","MEAN_MOTION":15.41146048,"ECCENTRICITY":0.0005596,"INCLINATION":97.8647,"RA_OF_ASC_NODE":61.1594,"ARG_OF_PERICENTER":41.0713,"MEAN_ANOMALY":319.0953,"EPHEMERIS_TYPE":0,"CLASSIFICATION_TYPE":"U","NORAD_CAT_ID":46507,"ELEMENT_SET_NO":999,"REV_AT_EPOCH":29929,"BSTAR":0.00067702,"MEAN_MOTION_DOT":0.0002804,"MEAN_MOTION_DDOT":0},{"OBJECT_NAME":"TIANQI-6","OBJECT_ID":"2020-076D","EPOCH":"2026-03-02T11:05:46.846464","MEAN_MOTION":15.06324679,"ECCENTRICITY":0.00115638,"INCLINATION":35.0006,"RA_OF_ASC_NODE":343.0851,"ARG_OF_PERICENTER":306.1453,"MEAN_ANOMALY":53.8186,"EPHEMERIS_TYPE":0,"CLASSIFICATION_TYPE":"U","NORAD_CAT_ID":46810,"ELEMENT_SET_NO":999,"REV_AT_EPOCH":29247,"BSTAR":0.00039623421,"MEAN_MOTION_DOT":5.931e-5,"MEAN_MOTION_DDOT":0},{"OBJECT_NAME":"KSM1-C","OBJECT_ID":"2020-081B","EPOCH":"2026-03-02T21:19:59.155104","MEAN_MOTION":15.24737573,"ECCENTRICITY":0.0002255,"INCLINATION":36.8952,"RA_OF_ASC_NODE":354.2609,"ARG_OF_PERICENTER":348.6303,"MEAN_ANOMALY":11.4394,"EPHEMERIS_TYPE":0,"CLASSIFICATION_TYPE":"U","NORAD_CAT_ID":46906,"ELEMENT_SET_NO":999,"REV_AT_EPOCH":29292,"BSTAR":0.00069988,"MEAN_MOTION_DOT":0.00017682,"MEAN_MOTION_DDOT":0},{"OBJECT_NAME":"KSM1-D","OBJECT_ID":"2020-081C","EPOCH":"2026-03-02T21:21:35.905824","MEAN_MOTION":15.23001239,"ECCENTRICITY":0.0002327,"INCLINATION":36.898,"RA_OF_ASC_NODE":1.3525,"ARG_OF_PERICENTER":48.8717,"MEAN_ANOMALY":311.2232,"EPHEMERIS_TYPE":0,"CLASSIFICATION_TYPE":"U","NORAD_CAT_ID":46907,"ELEMENT_SET_NO":999,"REV_AT_EPOCH":29287,"BSTAR":0.00073187,"MEAN_MOTION_DOT":0.00017557,"MEAN_MOTION_DDOT":0},{"OBJECT_NAME":"KSM1-A","OBJECT_ID":"2020-081H","EPOCH":"2026-03-02T21:46:15.027168","MEAN_MOTION":15.24082774,"ECCENTRICITY":0.0002225,"INCLINATION":36.8972,"RA_OF_ASC_NODE":355.7995,"ARG_OF_PERICENTER":229.0734,"MEAN_ANOMALY":130.9822,"EPHEMERIS_TYPE":0,"CLASSIFICATION_TYPE":"U","NORAD_CAT_ID":46912,"ELEMENT_SET_NO":999,"REV_AT_EPOCH":29294,"BSTAR":0.00071363,"MEAN_MOTION_DOT":0.0001768,"MEAN_MOTION_DDOT":0},{"OBJECT_NAME":"R2","OBJECT_ID":"2020-081J","EPOCH":"2026-03-02T05:45:31.962528","MEAN_MOTION":15.23634417,"ECCENTRICITY":0.00042183,"INCLINATION":36.8994,"RA_OF_ASC_NODE":359.3853,"ARG_OF_PERICENTER":92.4051,"MEAN_ANOMALY":267.7181,"EPHEMERIS_TYPE":0,"CLASSIFICATION_TYPE":"U","NORAD_CAT_ID":46913,"ELEMENT_SET_NO":999,"REV_AT_EPOCH":29565,"BSTAR":0.00051869974,"MEAN_MOTION_DOT":0.00012645,"MEAN_MOTION_DDOT":0},{"OBJECT_NAME":"KSM1-B","OBJECT_ID":"2020-081K","EPOCH":"2026-03-02T21:06:44.308800","MEAN_MOTION":15.22818112,"ECCENTRICITY":0.000343,"INCLINATION":36.9031,"RA_OF_ASC_NODE":1.7811,"ARG_OF_PERICENTER":96.8829,"MEAN_ANOMALY":263.231,"EPHEMERIS_TYPE":0,"CLASSIFICATION_TYPE":"U","NORAD_CAT_ID":46914,"ELEMENT_SET_NO":999,"REV_AT_EPOCH":29596,"BSTAR":0.0005318,"MEAN_MOTION_DOT":0.00012654,"MEAN_MOTION_DDOT":0},{"OBJECT_NAME":"GONETS-M 20","OBJECT_ID":"2020-091A","EPOCH":"2026-03-02T19:56:26.633184","MEAN_MOTION":12.42889814,"ECCENTRICITY":0.0022055,"INCLINATION":82.5085,"RA_OF_ASC_NODE":8.5418,"ARG_OF_PERICENTER":53.3428,"MEAN_ANOMALY":306.9674,"EPHEMERIS_TYPE":0,"CLASSIFICATION_TYPE":"U","NORAD_CAT_ID":47227,"ELEMENT_SET_NO":999,"REV_AT_EPOCH":23786,"BSTAR":0.00067005,"MEAN_MOTION_DOT":1.03e-6,"MEAN_MOTION_DDOT":0},{"OBJECT_NAME":"GONETS-M 21","OBJECT_ID":"2020-091B","EPOCH":"2026-03-02T19:17:48.509088","MEAN_MOTION":12.42881394,"ECCENTRICITY":0.001589,"INCLINATION":82.5011,"RA_OF_ASC_NODE":7.3309,"ARG_OF_PERICENTER":66.8498,"MEAN_ANOMALY":293.4254,"EPHEMERIS_TYPE":0,"CLASSIFICATION_TYPE":"U","NORAD_CAT_ID":47228,"ELEMENT_SET_NO":999,"REV_AT_EPOCH":23785,"BSTAR":0.00095426,"MEAN_MOTION_DOT":1.42e-6,"MEAN_MOTION_DDOT":0},{"OBJECT_NAME":"GONETS-M 22","OBJECT_ID":"2020-091C","EPOCH":"2026-03-02T20:35:44.977344","MEAN_MOTION":12.42887411,"ECCENTRICITY":0.0022886,"INCLINATION":82.5068,"RA_OF_ASC_NODE":8.1463,"ARG_OF_PERICENTER":48.765,"MEAN_ANOMALY":311.5398,"EPHEMERIS_TYPE":0,"CLASSIFICATION_TYPE":"U","NORAD_CAT_ID":47229,"ELEMENT_SET_NO":999,"REV_AT_EPOCH":23781,"BSTAR":0.00027632,"MEAN_MOTION_DOT":4.8e-7,"MEAN_MOTION_DDOT":0},{"OBJECT_NAME":"CUBEL","OBJECT_ID":"2021-006AM","EPOCH":"2026-03-02T16:07:33.951936","MEAN_MOTION":15.39072503,"ECCENTRICITY":0.0006651,"INCLINATION":97.249,"RA_OF_ASC_NODE":113.351,"ARG_OF_PERICENTER":183.7104,"MEAN_ANOMALY":176.4094,"EPHEMERIS_TYPE":0,"CLASSIFICATION_TYPE":"U","NORAD_CAT_ID":47448,"ELEMENT_SET_NO":999,"REV_AT_EPOCH":28336,"BSTAR":0.000284,"MEAN_MOTION_DOT":0.00010921,"MEAN_MOTION_DDOT":0},{"OBJECT_NAME":"ASTROCAST-0103","OBJECT_ID":"2021-006CC","EPOCH":"2026-03-02T18:20:06.360864","MEAN_MOTION":15.71756876,"ECCENTRICITY":0.0005809,"INCLINATION":97.2648,"RA_OF_ASC_NODE":130.8554,"ARG_OF_PERICENTER":156.5567,"MEAN_ANOMALY":203.5962,"EPHEMERIS_TYPE":0,"CLASSIFICATION_TYPE":"U","NORAD_CAT_ID":47487,"ELEMENT_SET_NO":999,"REV_AT_EPOCH":28443,"BSTAR":0.00060223,"MEAN_MOTION_DOT":0.00078269,"MEAN_MOTION_DDOT":0},{"OBJECT_NAME":"ARKTIKA-M 1","OBJECT_ID":"2021-016A","EPOCH":"2026-03-02T19:44:56.440608","MEAN_MOTION":2.00620868,"ECCENTRICITY":0.7242815,"INCLINATION":63.2036,"RA_OF_ASC_NODE":72.8571,"ARG_OF_PERICENTER":269.4536,"MEAN_ANOMALY":15.2019,"EPHEMERIS_TYPE":0,"CLASSIFICATION_TYPE":"U","NORAD_CAT_ID":47719,"ELEMENT_SET_NO":999,"REV_AT_EPOCH":3665,"BSTAR":0,"MEAN_MOTION_DOT":-1.08e-6,"MEAN_MOTION_DDOT":0},{"OBJECT_NAME":"STARLINK-2342","OBJECT_ID":"2021-021Z","EPOCH":"2026-03-02T09:12:47.548224","MEAN_MOTION":15.30195656,"ECCENTRICITY":0.00010297,"INCLINATION":53.1594,"RA_OF_ASC_NODE":302.0629,"ARG_OF_PERICENTER":75.6959,"MEAN_ANOMALY":284.4156,"EPHEMERIS_TYPE":0,"CLASSIFICATION_TYPE":"U","NORAD_CAT_ID":47883,"ELEMENT_SET_NO":999,"REV_AT_EPOCH":27530,"BSTAR":0.00022300468,"MEAN_MOTION_DOT":6.25e-5,"MEAN_MOTION_DDOT":0}]
